[{"OBJECT_NAME":"ONEWEB-0302","OBJECT_ID":"2021-075S","EPOCH":"2026-02-10T23:28:53.313312","MEAN_MOTION":13.1244455,"ECCENTRICITY":0.00020867,"INCLINATION":87.8964,"RA_OF_ASC_NODE":15.7114,"ARG_OF_PERICENTER":90.4238,"MEAN_ANOMALY":269.713,"EPHEMERIS_TYPE":0,"CLASSIFICATION_TYPE":"U","NORAD_CAT_ID":49091,"ELEMENT_SET_NO":999,"REV_AT_EPOCH":21799,"BSTAR":0.0010654965,"MEAN_MOTION_DOT":3.96e-6,"MEAN_MOTION_DDOT":0},{"OBJECT_NAME":"ONEWEB-0304","OBJECT_ID":"2021-075T","EPOCH":"2026-02-10T21:16:32.602080","MEAN_MOTION":13.17650987,"ECCENTRICITY":0.00020018,"INCLINATION":87.9113,"RA_OF_ASC_NODE":30.9559,"ARG_OF_PERICENTER":85.5249,"MEAN_ANOMALY":274.6111,"EPHEMERIS_TYPE":0,"CLASSIFICATION_TYPE":"U","NORAD_CAT_ID":49092,"ELEMENT_SET_NO":999,"REV_AT_EPOCH":21694,"BSTAR":0.00014217646,"MEAN_MOTION_DOT":6.8e-7,"MEAN_MOTION_DDOT":0},{"OBJECT_NAME":"ONEWEB-0305","OBJECT_ID":"2021-075U","EPOCH":"2026-02-10T22:56:10.084992","MEAN_MOTION":13.17647634,"ECCENTRICITY":0.00022448,"INCLINATION":87.9116,"RA_OF_ASC_NODE":30.9204,"ARG_OF_PERICENTER":82.1882,"MEAN_ANOMALY":277.9504,"EPHEMERIS_TYPE":0,"CLASSIFICATION_TYPE":"U","NORAD_CAT_ID":49093,"ELEMENT_SET_NO":999,"REV_AT_EPOCH":21698,"BSTAR":0.00015810694,"MEAN_MOTION_DOT":7.4e-7,"MEAN_MOTION_DDOT":0},{"OBJECT_NAME":"ONEWEB-0308","OBJECT_ID":"2021-075V","EPOCH":"2026-02-10T21:29:20.940864","MEAN_MOTION":13.12444047,"ECCENTRICITY":0.00018805,"INCLINATION":87.8968,"RA_OF_ASC_NODE":15.7205,"ARG_OF_PERICENTER":84.3111,"MEAN_ANOMALY":275.8232,"EPHEMERIS_TYPE":0,"CLASSIFICATION_TYPE":"U","NORAD_CAT_ID":49094,"ELEMENT_SET_NO":999,"REV_AT_EPOCH":21799,"BSTAR":0.00072656606,"MEAN_MOTION_DOT":2.74e-6,"MEAN_MOTION_DDOT":0},{"OBJECT_NAME":"ONEWEB-0309","OBJECT_ID":"2021-075W","EPOCH":"2026-02-10T23:01:02.455680","MEAN_MOTION":13.17648021,"ECCENTRICITY":0.0002099,"INCLINATION":87.9112,"RA_OF_ASC_NODE":30.9347,"ARG_OF_PERICENTER":95.9948,"MEAN_ANOMALY":264.1423,"EPHEMERIS_TYPE":0,"CLASSIFICATION_TYPE":"U","NORAD_CAT_ID":49095,"ELEMENT_SET_NO":999,"REV_AT_EPOCH":21695,"BSTAR":0.000207924,"MEAN_MOTION_DOT":9.4e-7,"MEAN_MOTION_DDOT":0},{"OBJECT_NAME":"ONEWEB-0310","OBJECT_ID":"2021-075X","EPOCH":"2026-02-10T21:51:19.069632","MEAN_MOTION":13.12442752,"ECCENTRICITY":0.00018513,"INCLINATION":87.8953,"RA_OF_ASC_NODE":15.7505,"ARG_OF_PERICENTER":84.4728,"MEAN_ANOMALY":275.6611,"EPHEMERIS_TYPE":0,"CLASSIFICATION_TYPE":"U","NORAD_CAT_ID":49096,"ELEMENT_SET_NO":999,"REV_AT_EPOCH":21862,"BSTAR":0.0013904667,"MEAN_MOTION_DOT":5.13e-6,"MEAN_MOTION_DDOT":0},{"OBJECT_NAME":"ONEWEB-0311","OBJECT_ID":"2021-075Y","EPOCH":"2026-02-10T12:14:40.396128","MEAN_MOTION":13.17650817,"ECCENTRICITY":0.0002118,"INCLINATION":87.9108,"RA_OF_ASC_NODE":31.0191,"ARG_OF_PERICENTER":79.8297,"MEAN_ANOMALY":280.3074,"EPHEMERIS_TYPE":0,"CLASSIFICATION_TYPE":"U","NORAD_CAT_ID":49097,"ELEMENT_SET_NO":999,"REV_AT_EPOCH":21694,"BSTAR":0.0001591826,"MEAN_MOTION_DOT":7.5e-7,"MEAN_MOTION_DDOT":0},{"OBJECT_NAME":"ONEWEB-0312","OBJECT_ID":"2021-075Z","EPOCH":"2026-02-10T23:32:37.590432","MEAN_MOTION":13.17648144,"ECCENTRICITY":0.00022567,"INCLINATION":87.9103,"RA_OF_ASC_NODE":30.9454,"ARG_OF_PERICENTER":87.735,"MEAN_ANOMALY":272.404,"EPHEMERIS_TYPE":0,"CLASSIFICATION_TYPE":"U","NORAD_CAT_ID":49098,"ELEMENT_SET_NO":999,"REV_AT_EPOCH":21698,"BSTAR":0.00020148557,"MEAN_MOTION_DOT":9.1e-7,"MEAN_MOTION_DDOT":0},{"OBJECT_NAME":"ONEWEB-0313","OBJECT_ID":"2021-075AA","EPOCH":"2026-02-10T23:39:43.240032","MEAN_MOTION":13.17647572,"ECCENTRICITY":0.00019751,"INCLINATION":87.9099,"RA_OF_ASC_NODE":30.9508,"ARG_OF_PERICENTER":83.7628,"MEAN_ANOMALY":276.3729,"EPHEMERIS_TYPE":0,"CLASSIFICATION_TYPE":"U","NORAD_CAT_ID":49099,"ELEMENT_SET_NO":999,"REV_AT_EPOCH":21697,"BSTAR":5.1330584e-5,"MEAN_MOTION_DOT":3.3e-7,"MEAN_MOTION_DDOT":0},{"OBJECT_NAME":"ONEWEB-0314","OBJECT_ID":"2021-075AB","EPOCH":"2026-02-10T22:51:19.184832","MEAN_MOTION":13.17648333,"ECCENTRICITY":0.00022993,"INCLINATION":87.9113,"RA_OF_ASC_NODE":30.9179,"ARG_OF_PERICENTER":88.3229,"MEAN_ANOMALY":271.8166,"EPHEMERIS_TYPE":0,"CLASSIFICATION_TYPE":"U","NORAD_CAT_ID":49100,"ELEMENT_SET_NO":999,"REV_AT_EPOCH":21694,"BSTAR":0.00020145939,"MEAN_MOTION_DOT":9.1e-7,"MEAN_MOTION_DDOT":0},{"OBJECT_NAME":"ONEWEB-0315","OBJECT_ID":"2021-075AC","EPOCH":"2026-02-10T23:02:03.137856","MEAN_MOTION":13.12444353,"ECCENTRICITY":0.0002042,"INCLINATION":87.8963,"RA_OF_ASC_NODE":15.6951,"ARG_OF_PERICENTER":72.8695,"MEAN_ANOMALY":287.2657,"EPHEMERIS_TYPE":0,"CLASSIFICATION_TYPE":"U","NORAD_CAT_ID":49101,"ELEMENT_SET_NO":999,"REV_AT_EPOCH":21861,"BSTAR":-0.0006064595,"MEAN_MOTION_DOT":-2.05e-6,"MEAN_MOTION_DDOT":0},{"OBJECT_NAME":"ONEWEB-0316","OBJECT_ID":"2021-075AD","EPOCH":"2026-02-11T06:42:52.130592","MEAN_MOTION":13.18687182,"ECCENTRICITY":0.00019118,"INCLINATION":87.9219,"RA_OF_ASC_NODE":0.4608,"ARG_OF_PERICENTER":79.8164,"MEAN_ANOMALY":280.3184,"EPHEMERIS_TYPE":0,"CLASSIFICATION_TYPE":"U","NORAD_CAT_ID":49102,"ELEMENT_SET_NO":999,"REV_AT_EPOCH":22061,"BSTAR":6.7777852e-5,"MEAN_MOTION_DOT":4.0e-7,"MEAN_MOTION_DDOT":0},{"OBJECT_NAME":"ONEWEB-0317","OBJECT_ID":"2021-075AE","EPOCH":"2026-02-10T10:18:27.554976","MEAN_MOTION":13.12443763,"ECCENTRICITY":0.00017367,"INCLINATION":87.896,"RA_OF_ASC_NODE":15.8216,"ARG_OF_PERICENTER":108.6104,"MEAN_ANOMALY":251.5213,"EPHEMERIS_TYPE":0,"CLASSIFICATION_TYPE":"U","NORAD_CAT_ID":49103,"ELEMENT_SET_NO":999,"REV_AT_EPOCH":21856,"BSTAR":0.00011107219,"MEAN_MOTION_DOT":5.3e-7,"MEAN_MOTION_DDOT":0},{"OBJECT_NAME":"ONEWEB-0318","OBJECT_ID":"2021-075AF","EPOCH":"2026-02-11T06:38:06.588096","MEAN_MOTION":13.18687753,"ECCENTRICITY":0.00020387,"INCLINATION":87.9229,"RA_OF_ASC_NODE":0.451,"ARG_OF_PERICENTER":74.1247,"MEAN_ANOMALY":286.011,"EPHEMERIS_TYPE":0,"CLASSIFICATION_TYPE":"U","NORAD_CAT_ID":49104,"ELEMENT_SET_NO":999,"REV_AT_EPOCH":22057,"BSTAR":0.00019554443,"MEAN_MOTION_DOT":9.0e-7,"MEAN_MOTION_DDOT":0},{"OBJECT_NAME":"ONEWEB-0319","OBJECT_ID":"2021-075AG","EPOCH":"2026-02-10T21:23:50.472096","MEAN_MOTION":13.17651987,"ECCENTRICITY":0.00021292,"INCLINATION":87.9101,"RA_OF_ASC_NODE":30.9576,"ARG_OF_PERICENTER":71.3336,"MEAN_ANOMALY":288.8026,"EPHEMERIS_TYPE":0,"CLASSIFICATION_TYPE":"U","NORAD_CAT_ID":49105,"ELEMENT_SET_NO":999,"REV_AT_EPOCH":21697,"BSTAR":0.00012016855,"MEAN_MOTION_DOT":6.0e-7,"MEAN_MOTION_DDOT":0},{"OBJECT_NAME":"ONEWEB-0323","OBJECT_ID":"2021-075AH","EPOCH":"2026-02-10T22:40:05.365056","MEAN_MOTION":13.12442606,"ECCENTRICITY":0.00024033,"INCLINATION":87.8961,"RA_OF_ASC_NODE":15.7017,"ARG_OF_PERICENTER":72.714,"MEAN_ANOMALY":287.4252,"EPHEMERIS_TYPE":0,"CLASSIFICATION_TYPE":"U","NORAD_CAT_ID":49106,"ELEMENT_SET_NO":999,"REV_AT_EPOCH":21799,"BSTAR":-0.00096187091,"MEAN_MOTION_DOT":-3.33e-6,"MEAN_MOTION_DDOT":0},{"OBJECT_NAME":"ONEWEB-0329","OBJECT_ID":"2021-075AJ","EPOCH":"2026-02-10T21:35:58.566624","MEAN_MOTION":13.17647461,"ECCENTRICITY":0.00020431,"INCLINATION":87.9099,"RA_OF_ASC_NODE":30.957,"ARG_OF_PERICENTER":86.8083,"MEAN_ANOMALY":273.3283,"EPHEMERIS_TYPE":0,"CLASSIFICATION_TYPE":"U","NORAD_CAT_ID":49107,"ELEMENT_SET_NO":999,"REV_AT_EPOCH":21695,"BSTAR":-2.6206452e-5,"MEAN_MOTION_DOT":3.0e-8,"MEAN_MOTION_DDOT":0}]
