ONEWEB-0302             
1 49091U 21075S   26041.97839483  .00000396  00000+0  10655-2 0  9998
2 49091  87.8964  15.7114 0002086  90.4238 269.7130 13.12444550217993
ONEWEB-0304             
1 49092U 21075T   26041.88648845  .00000068  00000+0  14218-3 0  9995
2 49092  87.9113  30.9559 0002001  85.5249 274.6111 13.17650987216943
ONEWEB-0305             
1 49093U 21075U   26041.95567228  .00000074  00000+0  15811-3 0  9996
2 49093  87.9116  30.9204 0002244  82.1882 277.9504 13.17647634216980
ONEWEB-0308             
1 49094U 21075V   26041.89538126  .00000274  00000+0  72657-3 0  9998
2 49094  87.8968  15.7205 0001880  84.3111 275.8232 13.12444047217996
ONEWEB-0309             
1 49095U 21075W   26041.95905620  .00000094  00000+0  20792-3 0  9996
2 49095  87.9112  30.9347 0002099  95.9948 264.1423 13.17648021216955
ONEWEB-0310             
1 49096U 21075X   26041.91063738  .00000513  00000+0  13905-2 0  9991
2 49096  87.8953  15.7505 0001851  84.4728 275.6611 13.12442752218629
ONEWEB-0311             
1 49097U 21075Y   26041.51018977  .00000075  00000+0  15918-3 0  9993
2 49097  87.9108  31.0191 0002118  79.8297 280.3074 13.17650817216948
ONEWEB-0312             
1 49098U 21075Z   26041.98099063  .00000091  00000+0  20149-3 0  9990
2 49098  87.9103  30.9454 0002256  87.7350 272.4040 13.17648144216984
ONEWEB-0313             
1 49099U 21075AA  26041.98591713  .00000033  00000+0  51331-4 0  9994
2 49099  87.9099  30.9508 0001975  83.7628 276.3729 13.17647572216970
ONEWEB-0314             
1 49100U 21075AB  26041.95230538  .00000091  00000+0  20146-3 0  9992
2 49100  87.9113  30.9179 0002299  88.3229 271.8166 13.17648333216940
ONEWEB-0315             
1 49101U 21075AC  26041.95975854 -.00000205  00000+0 -60646-3 0  9998
2 49101  87.8963  15.6951 0002042  72.8695 287.2657 13.12444353218615
ONEWEB-0316             
1 49102U 21075AD  26042.27977003  .00000040  00000+0  67778-4 0  9992
2 49102  87.9219   0.4608 0001911  79.8164 280.3184 13.18687182220611
ONEWEB-0317             
1 49103U 21075AE  26041.42948559  .00000053  00000+0  11107-3 0  9991
2 49103  87.8960  15.8216 0001736 108.6104 251.5213 13.12443763218562
ONEWEB-0318             
1 49104U 21075AF  26042.27646514  .00000090  00000+0  19554-3 0  9997
2 49104  87.9229   0.4510 0002038  74.1247 286.0110 13.18687753220578
ONEWEB-0319             
1 49105U 21075AG  26041.89155639  .00000060  00000+0  12017-3 0  9992
2 49105  87.9101  30.9576 0002129  71.3336 288.8026 13.17651987216971
ONEWEB-0323             
1 49106U 21075AH  26041.94450654 -.00000333  00000+0 -96187-3 0  9999
2 49106  87.8961  15.7017 0002403  72.7140 287.4252 13.12442606217999
ONEWEB-0329             
1 49107U 21075AJ  26041.89998341  .00000003  00000+0 -26206-4 0  9993
2 49107  87.9099  30.9570 0002043  86.8083 273.3283 13.17647461216952
